STARLINK-5479           
1 55662U 23021AL  26068.65319215 -.00000754  00000+0 -56672-4 0  9993
2 55662  70.0006 164.3838 0003097 266.5141  93.5663 14.97521078169288
SKYCRAFT-4A             
1 64897U 25154J   26068.70823073  .00008187  00000+0  74814-3 0  9993
2 64897  97.6797 135.1070 0004874 223.0221 137.0620 14.95268947 32518
