[{"OBJECT_NAME":"STARLINK-5479","OBJECT_ID":"2023-021AL","EPOCH":"2026-03-09T15:40:35.802624","MEAN_MOTION":14.97521079,"ECCENTRICITY":0.00030974,"INCLINATION":70.0006,"RA_OF_ASC_NODE":164.3838,"ARG_OF_PERICENTER":266.5141,"MEAN_ANOMALY":93.5663,"EPHEMERIS_TYPE":0,"CLASSIFICATION_TYPE":"U","NORAD_CAT_ID":55662,"ELEMENT_SET_NO":999,"REV_AT_EPOCH":16928,"BSTAR":-5.6671748e-5,"MEAN_MOTION_DOT":-7.54e-6,"MEAN_MOTION_DDOT":0},{"OBJECT_NAME":"SKYCRAFT-4A","OBJECT_ID":"2025-154J","EPOCH":"2026-03-09T16:59:51.135072","MEAN_MOTION":14.95268947,"ECCENTRICITY":0.00048742,"INCLINATION":97.6797,"RA_OF_ASC_NODE":135.107,"ARG_OF_PERICENTER":223.0221,"MEAN_ANOMALY":137.062,"EPHEMERIS_TYPE":0,"CLASSIFICATION_TYPE":"U","NORAD_CAT_ID":64897,"ELEMENT_SET_NO":999,"REV_AT_EPOCH":3251,"BSTAR":0.00074813792,"MEAN_MOTION_DOT":8.187e-5,"MEAN_MOTION_DDOT":0}]
